{"fetched_at":"2026-03-29T16:36:15Z","count":15609,"tles":[{"name":"2025-274J","line1":"1 66658U 25274J   26087.75684486  .00005403  00000+0  51500-3 0  9997","line2":"2 66658  97.7448  18.2938 0011012 287.7011  72.3006 14.93729562 18223","category":"Other"}]}