{
  "norad_id": 66658,
  "name": "2025-274J",
  "history": [
    {
      "epoch": "2026-03-28T18:09:51.395904Z",
      "apogee_km": 593.9884035064943,
      "perigee_km": 578.6493287504636,
      "latitude_deg": -3.467515850965637e-05,
      "longitude_deg": -80.34306111460481,
      "height_km": 587.0390935327865,
      "semi_major_axis_km": 6964.455866128479,
      "eccentricity": 0.00110124,
      "inclination_deg": 97.7448,
      "raan_deg": 18.2938,
      "arg_perigee_deg": 287.7011,
      "mean_anomaly_deg": 72.3006,
      "mean_motion_rev_day": 14.93729562
    }
  ]
}